CYGFM01                 
1 41887U 16078D   24275.21799238  .00024008  00000+0  79998-3 0  9999
2 41887  34.9469 352.3105 0011340  76.2879 283.9099 15.30122274432367
CYGFM08                 
1 41888U 16078E   24275.23412903  .00024811  00000+0  79998-3 0  9995
2 41888  34.9501 339.3829 0012459 100.7294 259.4826 15.31161066432469
CYGFM07                 
1 41890U 16078G   24274.60120167  .00022327  00000+0  71307-3 0  9992
2 41890  34.9530 334.5430 0010402 110.2304 249.9532 15.31504551432337
CYGFM03                 
1 41891U 16078H   24275.49050280  .00022890  00000+0  73308-3 0  9997
2 41891  34.9464 330.1550 0009263 105.8199 254.3539 15.31422792432607
FENGYUN 3D              
1 43010U 17072A   24275.46742691  .00000525  00000+0  27120-3 0  9990
2 43010  98.9231 230.8041 0002398  54.2584 305.8814 14.19440869356492
NOAA 20 (JPSS-1)        
1 43013U 17073A   24275.49082968  .00000416  00000+0  21817-3 0  9997
2 43013  98.7121 211.6507 0000122 266.2580  93.8582 14.19522513355985
GOES 17                 
1 43226U 18022A   24275.47619104 -.00000094  00000+0  00000+0 0  9994
2 43226   0.0363  39.1256 0002571 182.2121 216.0932  1.00272289 24188
FENGYUN 2H              
1 43491U 18050A   24275.12316984 -.00000133  00000+0  00000+0 0  9995
2 43491   1.4139  86.2666 0001578 122.3250 285.4729  1.00269919 23257
METOP-C                 
1 43689U 18087A   24275.49885028  .00000537  00000+0  26544-3 0  9996
2 43689  98.7124 333.4743 0002555 123.4087 236.7334 14.21492222306222
GEO-KOMPSAT-2A          
1 43823U 18100A   24275.49424168 -.00000347  00000+0  00000+0 0  9991
2 43823   0.0478  35.6592 0001358  96.4562 184.8009  1.00270059 21401
METEOR-M2 2             
1 44387U 19038A   24275.53590115  .00000732  00000+0  33845-3 0  9993
2 44387  98.8407 245.2460 0002022  49.6365 310.4990 14.23994160272529
ARKTIKA-M 1             
1 47719U 21016A   24273.93213384  .00000057  00000+0  00000+0 0  9999
2 47719  63.1328 139.6252 6979674 268.5353  17.7060  2.00615866 26251
FENGYUN 3E              
1 49008U 21062A   24275.48046849  .00000183  00000+0  10726-3 0  9995
2 49008  98.7383 275.3608 0002732  87.4222 272.7267 14.19792027168078
GOES 18                 
1 51850U 22021A   24275.47063395  .00000093  00000+0  00000+0 0  9993
2 51850   0.0148  24.9438 0000404 240.0220 138.1658  1.00272113  9550
NOAA 21 (JPSS-2)        
1 54234U 22150A   24275.52771259  .00000481  00000+0  24912-3 0  9999
2 54234  98.7575 212.1961 0001352 131.6593 228.4699 14.19519866 98065
METEOSAT-12 (MTG-I1)    
1 54743U 22170C   24274.92184569 -.00000012  00000+0  00000+0 0  9990
2 54743   0.5797  41.1822 0001873 108.1596 192.3733  1.00271894  6714
TIANMU-1 03             
1 55973U 23039A   24275.49803146  .00022852  00000+0  89634-3 0  9992
2 55973  97.4793  65.7413 0005250 159.4061 200.7389 15.25741779 85048
TIANMU-1 04             
1 55974U 23039B   24275.47442846  .00022244  00000+0  86919-3 0  9995
2 55974  97.4716  65.1858 0006306 156.9114 203.2409 15.25867498 85032
TIANMU-1 05             
1 55975U 23039C   24275.46517802  .00021938  00000+0  86093-3 0  9992
2 55975  97.4763  65.5556 0004696 175.8174 184.3104 15.25734819 85020
TIANMU-1 06             
1 55976U 23039D   24275.50043048  .00023100  00000+0  89984-3 0  9999
2 55976  97.4778  65.7596 0005224 174.7065 185.4229 15.25969807 85036
METEOR-M2 3             
1 57166U 23091A   24275.50232933  .00000167  00000+0  91944-4 0  9991
2 57166  98.7015 329.1653 0004174 166.5022 193.6269 14.23930544 65758
TIANMU-1 07             
1 57399U 23101A   24275.48074694  .00014482  00000+0  68746-3 0  9994
2 57399  97.3520 329.7255 0005528 160.0845 200.0607 15.19337858 66555
TIANMU-1 08             
1 57400U 23101B   24275.51547382  .00014748  00000+0  69983-3 0  9999
2 57400  97.3507 329.6185 0007416 170.5891 189.5484 15.19336242 66559
TIANMU-1 09             
1 57401U 23101C   24275.56353086  .00016121  00000+0  76323-3 0  9994
2 57401  97.3463 329.4468 0007956 166.8600 193.2843 15.19392618 66569
TIANMU-1 10             
1 57402U 23101D   24275.53099813  .00015319  00000+0  72555-3 0  9998
2 57402  97.3543 329.7996 0010030 167.8403 192.3076 15.19374073 66559
FENGYUN 3F              
1 57490U 23111A   24275.49912301  .00000398  00000+0  20838-3 0  9995
2 57490  98.7601 343.6040 0001781 116.9123 243.2235 14.19892386 60354
ARKTIKA-M 2             
1 58584U 23198A   24274.16389617  .00000035  00000+0  00000+0 0  9999
2 58584  63.2463 223.3668 6941328 269.6741  17.5263  2.00613354  5782
TIANMU-1 11             
1 58645U 23205A   24275.52292506  .00012659  00000+0  64133-3 0  9993
2 58645  97.3981 297.9674 0012275  43.9708 316.2500 15.17046274 42627
TIANMU-1 12             
1 58646U 23205B   24275.53723852  .00013202  00000+0  66994-3 0  9990
2 58646  97.3967 297.8949 0010097  40.3158 319.8822 15.17001269 42616
TIANMU-1 13             
1 58647U 23205C   24275.50519519  .00012828  00000+0  64961-3 0  9996
2 58647  97.3994 297.8963 0009901  23.5427 336.6257 15.17083294 42603
TIANMU-1 14             
1 58648U 23205D   24275.48903898  .00013792  00000+0  69798-3 0  9995
2 58648  97.3920 297.6415 0010718  25.5935 334.5827 15.17079089 42604
TIANMU-1 19             
1 58660U 23208A   24275.55739491  .00016883  00000+0  85299-3 0  9994
2 58660  97.4175  25.4678 0006257   3.0158 357.1112 15.17126970 42284
TIANMU-1 20             
1 58661U 23208B   24275.56260254  .00016784  00000+0  81775-3 0  9997
2 58661  97.4109  25.4949 0009297  12.2416 347.9042 15.18377528 42309
TIANMU-1 21             
1 58662U 23208C   24275.55262070  .00018488  00000+0  87188-3 0  9992
2 58662  97.4146  25.9547 0008875  11.5354 348.6082 15.19494344 42325
TIANMU-1 22             
1 58663U 23208D   24275.56919901  .00016972  00000+0  84919-3 0  9991
2 58663  97.4167  25.5480 0005103  31.5713 328.5826 15.17472767 42295
TIANMU-1 15             
1 58700U 24004A   24274.89255970  .00014827  00000+0  74806-3 0  9993
2 58700  97.4635  94.2032 0010432  51.5746 308.6422 15.17175523 40785
TIANMU-1 16             
1 58701U 24004B   24275.53233360  .00014278  00000+0  71931-3 0  9991
2 58701  97.4559  94.6182 0010381  54.2963 305.9235 15.17236577 40885
TIANMU-1 17             
1 58702U 24004C   24275.51934689  .00014980  00000+0  75564-3 0  9998
2 58702  97.4603  94.7895 0008236  50.5256 309.6704 15.17197284 40870
TIANMU-1 18             
1 58703U 24004D   24275.50201815  .00013896  00000+0  70192-3 0  9993
2 58703  97.4621  94.8679 0007431  43.0146 317.1668 15.17171429 40879
INSAT-3DS               
1 58990U 24033A   24275.12377800 -.00000160  00000+0  00000+0 0  9997
2 58990   0.0243 200.1985 0001566 356.3945 300.3805  1.00268372  2561
METEOR-M2 4             
1 59051U 24039A   24275.50544381  .00000231  00000+0  12318-3 0  9991
2 59051  98.6110 234.8432 0007132 167.0578 193.0784 14.22273800 30600
GOES 19                 
1 60133U 24119A   24274.87521325 -.00000188  00000+0  00000+0 0  9998
2 60133   0.0198  13.7810 0001197  85.1882 136.7402  1.00272602   703
YAOGAN-43 02A           
1 60945U 24156A   24275.39491354  .00049502  00000+0  20268-2 0  9999
2 60945  34.9965 161.2067 0009062 297.5111  62.4682 15.23226362  4338
YAOGAN-43 02B           
1 60946U 24156B   24275.40091104  .00033890  00000+0  14025-2 0  9998
2 60946  34.9955 161.2499 0002987 271.1167  88.9205 15.22982097  4286
YAOGAN-43 02C           
1 60947U 24156C   24275.20096873  .00006876  00000+0  28478-3 0  9997
2 60947  34.9917 162.4741 0002471 243.3554 116.6908 15.23223539  4253
YAOGAN-43 02D           
1 60948U 24156D   24275.20819968  .00015573  00000+0  64407-3 0  9992
2 60948  34.9930 162.5184 0001955 203.3321 156.7305 15.23132123  4259
YAOGAN-43 02E           
1 60949U 24156E   24275.40768896  .00048172  00000+0  19805-2 0  9990
2 60949  34.9957 161.3067 0009010 172.0097 188.0762 15.23095154  4288
YAOGAN-43 02F           
1 60950U 24156F   24275.13710184  .00015950  00000+0  64935-3 0  9992
2 60950  34.9951 162.8790 0003179 242.1628 117.8765 15.23656138  4246
CZ-4B R/B               
1 60951U 24156G   24275.09971757  .00080587  00000+0  12039-2 0  9998
2 60951  35.0011 156.7206 0087827 260.9811  98.0964 15.49377534  4344
BINAR-4                 
1 60952U 98067WS  24274.89918302  .00287865  00000+0  31682-2 0  9998
2 60952  51.6337 150.3738 0003831  83.7932 276.3498 15.61646661  5065
COSMOGIRLSAT            
1 60953U 98067WT  24274.86546651  .00162018  00000+0  21028-2 0  9995
2 60953  51.6354 150.8997 0007884  63.7617 296.4185 15.57736508  5057
SAKURA                  
1 60954U 98067WU  24274.92015848  .00190570  00000+0  23736-2 0  9994
2 60954  51.6353 150.5153 0007144  66.8779 293.2966 15.58730513  5064
1998-067WV              
1 60955U 98067WV  24275.47972512  .00475194  00000+0  38988-2 0  9999
2 60955  51.6321 146.7507 0001884 177.6191 182.4815 15.68442381  5161
BINAR-2                 
1 60956U 98067WW  24274.90538359  .00221206  00000+0  25857-2 0  9998
2 60956  51.6299 150.4079 0005072  79.3182 280.8382 15.60304225  5059
BINAR-3                 
1 60957U 98067WX  24274.88923518  .00301735  00000+0  32051-2 0  9991
2 60957  51.6315 150.3057 0003456  87.0803 273.0587 15.62516213  7040
1998-067WY              
1 60958U 98067WY  24274.93420592  .00154387  00000+0  20417-2 0  9994
2 60958  51.6363 150.6106 0008307  63.2428 296.9413 15.57260760  5059
SENTINEL-2C             
1 60989U 24157A   24274.81674335  .00000649  00000+0  24604-3 0  9994
2 60989  98.5684 347.5605 0001982 187.2945 172.8211 14.34438197  3694
STARLINK-11289 [DTC]    
1 60991U 24158B   24275.50983113 -.00004770  00000+0 -25178-4 0  9991
2 60991  53.1571 346.2042 0001919  50.7164 309.4027 15.76707003  5212
